FENGYUN 1C DEB          
1 30742U 99025ATC 17345.09811288  .00000351  00000-0  25760-3 0  9990
2 30742  99.1083  29.9480 0084488  77.6887 336.0083 14.00545913550404
